SMDC ONE 1.2            
1 38759U 12048B   26068.59359052  .00013943  00000+0  57078-3 0  9996
2 38759  64.6579 143.2061 0110458 207.1808 152.3511 15.19069434101016
STARLINK-4743           
1 53787U 22111Q   26068.85682019  .00001257  00000+0  97113-4 0  9997
2 53787  53.2164 273.2136 0001378  92.0675 268.0475 15.08828112193725
